ONEWEB-0350             
1 49214U 21083AE  25361.03550009 -.00000005  00000+0 -48297-4 0  9993
2 49214  87.8981 354.4348 0001516  96.4797 263.6505 13.13471612208331
ONEWEB-0351             
1 49215U 21083AF  25361.29128424  .00000149  00000+0  33490-3 0  9999
2 49215  87.9221 308.7212 0001610  50.3468 309.7807 13.20770436214081
ONEWEB-0352             
1 49216U 21083AG  25361.24456715 -.00000336  00000+0 -95534-3 0  9999
2 49216  87.8969 354.4147 0001589  74.9222 285.2083 13.13468068208455
ONEWEB-0354             
1 49217U 21083AH  25361.24091255  .00000009  00000+0 -10009-4 0  9995
2 49217  87.9218 308.7303 0001631  87.0567 273.0753 13.20770966214115
ONEWEB-0355             
1 49218U 21083AJ  25361.27348934  .00000298  00000+0  78059-3 0  9995
2 49218  87.8969 354.4222 0001557  85.9922 274.1386 13.13469328208335
ONEWEB-0357             
1 49219U 21083AK  25361.23775576 -.00000011  00000+0 -58776-4 0  9998
2 49219  87.9220 308.7271 0001669  76.4674 283.6645 13.20770864214110
ONEWEB-0332             
1 49279U 21090A   25361.26855798  .00000168  00000+0  41984-3 0  9993
2 49279  87.8998 323.9688 0001901  74.5307 285.6033 13.14503829204995
ONEWEB-0347             
1 49280U 21090B   25361.30405137  .00000055  00000+0  10243-3 0  9997
2 49280  87.9215 308.7234 0002101  75.8821 284.2545 13.20771198208356
